{"type": "FeatureCollection", "features": [ {"type": "Feature", "properties": {"norad_id": 40118, "name": "GAOFEN-2", "group": "resource", "lat": 65.7082745584961, "lon": -107.09051248994189, "alt_km": 615.3685439780447, "timestamp": "2025-12-21T11:31:42.498986+00:00", "meta": {"OBJECT_NAME": "GAOFEN-2", "OBJECT_ID": "2014-049A", "EPOCH": "2025-12-21T04:31:58.967616", "MEAN_MOTION": 14.80621312, "ECCENTRICITY": 0.000873, "INCLINATION": 98.0378, "RA_OF_ASC_NODE": 54.3723, "ARG_OF_PERICENTER": 89.8282, "MEAN_ANOMALY": 270.393, "EPHEMERIS_TYPE": 0, "CLASSIFICATION_TYPE": "U", "NORAD_CAT_ID": 40118, "ELEMENT_SET_NO": 999, "REV_AT_EPOCH": 61289, "BSTAR": 5.7769e-05, "MEAN_MOTION_DOT": 3.9e-06, "MEAN_MOTION_DDOT": 0}, "tle": {"line1": "1 40118U 14049A   25355.18887694  .00000390  00000+0  57769-4 0  9992", "line2": "2 40118  98.0378  54.3723 0008730  89.8282 270.3930 14.80621312612898"}}, "geometry": {"type": "Point", "coordinates": [-107.09051248994189, 65.7082745584961]}}, {"type": "Feature", "properties": {"norad_id": 40143, "name": "YAOGAN-21", "group": "resource", "lat": -9.961617815969806, "lon": 39.681419984102384, "alt_km": 493.2058737952466, "timestamp": "2025-12-21T11:31:42.498996+00:00", "meta": {"OBJECT_NAME": "YAOGAN-21", "OBJECT_ID": "2014-053A", "EPOCH": "2025-12-21T05:16:05.023776", "MEAN_MOTION": 15.23751572, "ECCENTRICITY": 0.0008924, "INCLINATION": 97.1744, "RA_OF_ASC_NODE": 38.1642, "ARG_OF_PERICENTER": 14.4578, "MEAN_ANOMALY": 345.6914, "EPHEMERIS_TYPE": 0, "CLASSIFICATION_TYPE": "U", "NORAD_CAT_ID": 40143, "ELEMENT_SET_NO": 999, "REV_AT_EPOCH": 62783, "BSTAR": 7.4563e-05, "MEAN_MOTION_DOT": 1.727e-05, "MEAN_MOTION_DDOT": 0}, "tle": {"line1": "1 40143U 14053A   25355.21950259  .00001727  00000+0  74563-4 0  9993", "line2": "2 40143  97.1744  38.1642 0008924  14.4578 345.6914 15.23751572627838"}}, "geometry": {"type": "Point", "coordinates": [39.681419984102384, -9.961617815969806]}}, {"type": "Feature", "properties": {"norad_id": 40275, "name": "YAOGAN-22", "group": "resource", "lat": 53.505902890690365, "lon": -26.108354762596267, "alt_km": 1197.6531155020748, "timestamp": "2025-12-21T11:31:42.499006+00:00", "meta": {"OBJECT_NAME": "YAOGAN-22", "OBJECT_ID": "2014-063A", "EPOCH": "2025-12-21T03:35:36.881088", "MEAN_MOTION": 13.15522896, "ECCENTRICITY": 0.0006033, "INCLINATION": 100.7427, "RA_OF_ASC_NODE": 138.6881, "ARG_OF_PERICENTER": 228.0657, "MEAN_ANOMALY": 131.9941, "EPHEMERIS_TYPE": 0, "CLASSIFICATION_TYPE": "U", "NORAD_CAT_ID": 40275, "ELEMENT_SET_NO": 999, "REV_AT_EPOCH": 53640, "BSTAR": 3.0794e-05, "MEAN_MOTION_DOT": -3.5e-07, "MEAN_MOTION_DDOT": 0}, "tle": {"line1": "1 40275U 14063A   25355.14973242 -.00000035  00000+0  30794-4 0  9999", "line2": "2 40275 100.7427 138.6881 0006033 228.0657 131.9941 13.15522896536406"}}, "geometry": {"type": "Point", "coordinates": [-26.108354762596267, 53.505902890690365]}}, {"type": "Feature", "properties": {"norad_id": 40298, "name": "ASNARO", "group": "resource", "lat": -82.40611783155063, "lon": 175.24054121099738, "alt_km": 518.0972946504826, "timestamp": "2025-12-21T11:31:42.499016+00:00", "meta": {"OBJECT_NAME": "ASNARO", "OBJECT_ID": "2014-070A", "EPOCH": "2025-12-21T04:01:51.303360", "MEAN_MOTION": 15.19651509, "ECCENTRICITY": 0.0005686, "INCLINATION": 97.3649, "RA_OF_ASC_NODE": 70.909, "ARG_OF_PERICENTER": 100.2472, "MEAN_ANOMALY": 259.9404, "EPHEMERIS_TYPE": 0, "CLASSIFICATION_TYPE": "U", "NORAD_CAT_ID": 40298, "ELEMENT_SET_NO": 999, "REV_AT_EPOCH": 61697, "BSTAR": 0.0003079, "MEAN_MOTION_DOT": 6.502e-05, "MEAN_MOTION_DDOT": 0}, "tle": {"line1": "1 40298U 14070A   25355.16795490  .00006502  00000+0  30790-3 0  9990", "line2": "2 40298  97.3649  70.9090 0005686 100.2472 259.9404 15.19651509616973"}}, "geometry": {"type": "Point", "coordinates": [175.24054121099738, -82.40611783155063]}}, {"type": "Feature", "properties": {"norad_id": 40310, "name": "YAOGAN-24", "group": "resource", "lat": -42.16007235380049, "lon": 134.05057262250182, "alt_km": 657.5630474186482, "timestamp": "2025-12-21T11:31:42.499026+00:00", "meta": {"OBJECT_NAME": "YAOGAN-24", "OBJECT_ID": "2014-072A", "EPOCH": "2025-12-21T05:12:53.064576", "MEAN_MOTION": 14.76193499, "ECCENTRICITY": 0.0015133, "INCLINATION": 98.1227, "RA_OF_ASC_NODE": 126.3558, "ARG_OF_PERICENTER": 112.6312, "MEAN_ANOMALY": 247.65, "EPHEMERIS_TYPE": 0, "CLASSIFICATION_TYPE": "U", "NORAD_CAT_ID": 40310, "ELEMENT_SET_NO": 999, "REV_AT_EPOCH": 59746, "BSTAR": 0.00011998, "MEAN_MOTION_DOT": 7.78e-06, "MEAN_MOTION_DDOT": 0}, "tle": {"line1": "1 40310U 14072A   25355.21728084  .00000778  00000+0  11998-3 0  9996", "line2": "2 40310  98.1227 126.3558 0015133 112.6312 247.6500 14.76193499597466"}}, "geometry": {"type": "Point", "coordinates": [134.05057262250182, -42.16007235380049]}}, {"type": "Feature", "properties": {"norad_id": 40336, "name": "CBERS 4", "group": "resource", "lat": -39.86871363899039, "lon": -133.83081374742645, "alt_km": 780.4227462609742, "timestamp": "2025-12-21T11:31:42.499037+00:00", "meta": {"OBJECT_NAME": "CBERS 4", "OBJECT_ID": "2014-079A", "EPOCH": "2025-12-21T03:48:51.297120", "MEAN_MOTION": 14.35520098, "ECCENTRICITY": 0.00018, "INCLINATION": 98.3302, "RA_OF_ASC_NODE": 52.8878, "ARG_OF_PERICENTER": 103.3356, "MEAN_ANOMALY": 256.8031, "EPHEMERIS_TYPE": 0, "CLASSIFICATION_TYPE": "U", "NORAD_CAT_ID": 40336, "ELEMENT_SET_NO": 999, "REV_AT_EPOCH": 57841, "BSTAR": -8.4944e-06, "MEAN_MOTION_DOT": -6.6e-07, "MEAN_MOTION_DDOT": 0}, "tle": {"line1": "1 40336U 14079A   25355.15892705 -.00000066  00000+0 -84944-5 0  9991", "line2": "2 40336  98.3302  52.8878 0001800 103.3356 256.8031 14.35520098578418"}}, "geometry": {"type": "Point", "coordinates": [-133.83081374742645, -39.86871363899039]}}, {"type": "Feature", "properties": {"norad_id": 40362, "name": "YAOGAN-26", "group": "resource", "lat": -19.006341564416346, "lon": 173.39602412088877, "alt_km": 455.875468217886, "timestamp": "2025-12-21T11:31:42.499047+00:00", "meta": {"OBJECT_NAME": "YAOGAN-26", "OBJECT_ID": "2014-088A", "EPOCH": "2025-12-21T05:59:12.804864", "MEAN_MOTION": 15.3957967, "ECCENTRICITY": 0.0005041, "INCLINATION": 97.0633, "RA_OF_ASC_NODE": 355.6211, "ARG_OF_PERICENTER": 5.0106, "MEAN_ANOMALY": 355.119, "EPHEMERIS_TYPE": 0, "CLASSIFICATION_TYPE": "U", "NORAD_CAT_ID": 40362, "ELEMENT_SET_NO": 999, "REV_AT_EPOCH": 61025, "BSTAR": 0.0004521, "MEAN_MOTION_DOT": 0.00017738, "MEAN_MOTION_DDOT": 0}, "tle": {"line1": "1 40362U 14088A   25355.24945376  .00017738  00000+0  45210-3 0  9996", "line2": "2 40362  97.0633 355.6211 0005041   5.0106 355.1190 15.39579670610250"}}, "geometry": {"type": "Point", "coordinates": [173.39602412088877, -19.006341564416346]}}, {"type": "Feature", "properties": {"norad_id": 40376, "name": "SMAP", "group": "resource", "lat": -37.14590264610992, "lon": 173.86219366328407, "alt_km": 689.25954923462, "timestamp": "2025-12-21T11:31:42.499058+00:00", "meta": {"OBJECT_NAME": "SMAP", "OBJECT_ID": "2015-003A", "EPOCH": "2025-12-21T03:58:24.769344", "MEAN_MOTION": 14.63354538, "ECCENTRICITY": 0.0001227, "INCLINATION": 98.1288, "RA_OF_ASC_NODE": 359.7679, "ARG_OF_PERICENTER": 91.4521, "MEAN_ANOMALY": 268.6822, "EPHEMERIS_TYPE": 0, "CLASSIFICATION_TYPE": "U", "NORAD_CAT_ID": 40376, "ELEMENT_SET_NO": 999, "REV_AT_EPOCH": 58158, "BSTAR": 7.9596e-05, "MEAN_MOTION_DOT": 3.64e-06, "MEAN_MOTION_DDOT": 0}, "tle": {"line1": "1 40376U 15003A   25355.16556446  .00000364  00000+0  79596-4 0  9998", "line2": "2 40376  98.1288 359.7679 0001227  91.4521 268.6822 14.63354538581581"}}, "geometry": {"type": "Point", "coordinates": [173.86219366328407, -37.14590264610992]}}, {"type": "Feature", "properties": {"norad_id": 40536, "name": "KOMPSAT-3A", "group": "resource", "lat": -72.22358571440476, "lon": -4.799296076502893, "alt_km": 444.679356569075, "timestamp": "2025-12-21T11:31:42.499068+00:00", "meta": {"OBJECT_NAME": "KOMPSAT-3A", "OBJECT_ID": "2015-014A", "EPOCH": "2025-12-21T04:04:21.230688", "MEAN_MOTION": 15.44229678, "ECCENTRICITY": 0.0005499, "INCLINATION": 97.6794, "RA_OF_ASC_NODE": 329.9832, "ARG_OF_PERICENTER": 108.0107, "MEAN_ANOMALY": 252.174, "EPHEMERIS_TYPE": 0, "CLASSIFICATION_TYPE": "U", "NORAD_CAT_ID": 40536, "ELEMENT_SET_NO": 999, "REV_AT_EPOCH": 59425, "BSTAR": 0.00030409, "MEAN_MOTION_DOT": 0.00013887, "MEAN_MOTION_DDOT": 0}, "tle": {"line1": "1 40536U 15014A   25355.16969017  .00013887  00000+0  30409-3 0  9993", "line2": "2 40536  97.6794 329.9832 0005499 108.0107 252.1740 15.44229678594256"}}, "geometry": {"type": "Point", "coordinates": [-4.799296076502893, -72.22358571440476]}}, {"type": "Feature", "properties": {"norad_id": 40697, "name": "SENTINEL-2A", "group": "resource", "lat": 35.76660532780628, "lon": -105.87042622813232, "alt_km": 786.1096732192955, "timestamp": "2025-12-21T11:31:42.499079+00:00", "meta": {"OBJECT_NAME": "SENTINEL-2A", "OBJECT_ID": "2015-028A", "EPOCH": "2025-12-21T04:08:45.530016", "MEAN_MOTION": 14.30808633, "ECCENTRICITY": 0.0001072, "INCLINATION": 98.5743, "RA_OF_ASC_NODE": 67.587, "ARG_OF_PERICENTER": 88.8104, "MEAN_ANOMALY": 271.3202, "EPHEMERIS_TYPE": 0, "CLASSIFICATION_TYPE": "U", "NORAD_CAT_ID": 40697, "ELEMENT_SET_NO": 999, "REV_AT_EPOCH": 54827, "BSTAR": 7.288e-05, "MEAN_MOTION_DOT": 1.47e-06, "MEAN_MOTION_DDOT": 0}, "tle": {"line1": "1 40697U 15028A   25355.17274919  .00000147  00000+0  72880-4 0  9992", "line2": "2 40697  98.5743  67.5870 0001072  88.8104 271.3202 14.30808633548275"}}, "geometry": {"type": "Point", "coordinates": [-105.87042622813232, 35.76660532780628]}}]}